{
    "links": {
        "self": "http://www.neowsapp.com/rest/v1/neo/3773830?api_key=iIulBulltgU6a56xZRHN4H3l9WmuAYTsLGpBGhQ2"
    },
    "id": "3773830",
    "neo_reference_id": "3773830",
    "name": "(2017 GL5)",
    "designation": "2017 GL5",
    "nasa_jpl_url": "http://ssd.jpl.nasa.gov/sbdb.cgi?sstr=3773830",
    "absolute_magnitude_h": 24.8,
    "estimated_diameter": {
        "kilometers": {
            "estimated_diameter_min": 0.0291443905,
            "estimated_diameter_max": 0.0651688382
        },
        "meters": {
            "estimated_diameter_min": 29.1443904535,
            "estimated_diameter_max": 65.1688382168
        },
        "miles": {
            "estimated_diameter_min": 0.018109479,
            "estimated_diameter_max": 0.0404940262
        },
        "feet": {
            "estimated_diameter_min": 95.6180819754,
            "estimated_diameter_max": 213.8085311752
        }
    },
    "is_potentially_hazardous_asteroid": false,
    "close_approach_data": [
        {
            "close_approach_date": "2016-11-10",
            "close_approach_date_full": "2016-Nov-10 22:06",
            "epoch_date_close_approach": 1478815560000,
            "relative_velocity": {
                "kilometers_per_second": "14.4393445684",
                "kilometers_per_hour": "51981.6404462713",
                "miles_per_hour": "32299.3698650734"
            },
            "miss_distance": {
                "astronomical": "0.4517526159",
                "lunar": "175.7317675851",
                "kilometers": "67581229.105568133",
                "miles": "41993028.5235929154"
            },
            "orbiting_body": "Earth"
        },
        {
            "close_approach_date": "2017-04-02",
            "close_approach_date_full": "2017-Apr-02 13:25",
            "epoch_date_close_approach": 1491139500000,
            "relative_velocity": {
                "kilometers_per_second": "16.0817926522",
                "kilometers_per_hour": "57894.4535479178",
                "miles_per_hour": "35973.3619837048"
            },
            "miss_distance": {
                "astronomical": "0.0814840378",
                "lunar": "31.6972907042",
                "kilometers": "12189838.493879486",
                "miles": "7574414.4098334668"
            },
            "orbiting_body": "Earth"
        }
    ],
    "orbital_data": {
        "orbit_id": "1",
        "orbit_determination_date": "2017-04-06 15:42:15",
        "first_observation_date": "2017-04-03",
        "last_observation_date": "2017-04-06",
        "data_arc_in_days": 3,
        "observations_used": 43,
        "orbit_uncertainty": "8",
        "minimum_orbit_intersection": ".0808602",
        "jupiter_tisserand_invariant": "4.484",
        "epoch_osculation": "2457847.5",
        "eccentricity": ".3173069498158512",
        "semi_major_axis": "1.44339289947272",
        "inclination": "28.37422832603703",
        "ascending_node_longitude": "16.13033004341261",
        "orbital_period": "633.3959376653597",
        "perihelion_distance": ".9853943011551737",
        "perihelion_argument": "127.3833143094108",
        "aphelion_distance": "1.901391497790266",
        "perihelion_time": "2457800.759121221116",
        "mean_anomaly": "26.56587350784092",
        "mean_motion": ".5683648703635952",
        "equinox": "J2000",
        "orbit_class": {
            "orbit_class_type": "APO",
            "orbit_class_description": "Near-Earth asteroid orbits which cross the Earth’s orbit similar to that of 1862 Apollo",
            "orbit_class_range": "a (semi-major axis) > 1.0 AU; q (perihelion) < 1.017 AU"
        }
    },
    "is_sentry_object": false
}